[{"OBJECT_NAME":"ONEWEB-0198","OBJECT_ID":"2021-031G","EPOCH":"2025-09-10T06:22:17.101344","MEAN_MOTION":13.1449076,"ECCENTRICITY":0.00016409,"INCLINATION":87.9089,"RA_OF_ASC_NODE":345.4518,"ARG_OF_PERICENTER":116.5011,"MEAN_ANOMALY":243.6287,"EPHEMERIS_TYPE":0,"CLASSIFICATION_TYPE":"U","NORAD_CAT_ID":48216,"ELEMENT_SET_NO":999,"REV_AT_EPOCH":21171,"BSTAR":0.0067027612,"MEAN_MOTION_DOT":2.498e-5,"MEAN_MOTION_DDOT":0},{"OBJECT_NAME":"ONEWEB-0189","OBJECT_ID":"2021-031H","EPOCH":"2025-09-10T10:19:35.158656","MEAN_MOTION":13.14504219,"ECCENTRICITY":0.00016726,"INCLINATION":87.9083,"RA_OF_ASC_NODE":345.3923,"ARG_OF_PERICENTER":112.8652,"MEAN_ANOMALY":247.2655,"EPHEMERIS_TYPE":0,"CLASSIFICATION_TYPE":"U","NORAD_CAT_ID":48217,"ELEMENT_SET_NO":999,"REV_AT_EPOCH":21147,"BSTAR":-0.00034535313,"MEAN_MOTION_DOT":-1.15e-6,"MEAN_MOTION_DDOT":0},{"OBJECT_NAME":"ONEWEB-0196","OBJECT_ID":"2021-031J","EPOCH":"2025-09-10T06:08:24.658080","MEAN_MOTION":13.14503518,"ECCENTRICITY":0.00017953,"INCLINATION":87.9091,"RA_OF_ASC_NODE":345.442,"ARG_OF_PERICENTER":104.8441,"MEAN_ANOMALY":255.2888,"EPHEMERIS_TYPE":0,"CLASSIFICATION_TYPE":"U","NORAD_CAT_ID":48218,"ELEMENT_SET_NO":999,"REV_AT_EPOCH":21145,"BSTAR":0.00052294982,"MEAN_MOTION_DOT":2.07e-6,"MEAN_MOTION_DDOT":0},{"OBJECT_NAME":"ONEWEB-0183","OBJECT_ID":"2021-031K","EPOCH":"2025-09-10T05:31:52.107744","MEAN_MOTION":13.14503328,"ECCENTRICITY":0.00020664,"INCLINATION":87.9084,"RA_OF_ASC_NODE":345.457,"ARG_OF_PERICENTER":99.3554,"MEAN_ANOMALY":260.7809,"EPHEMERIS_TYPE":0,"CLASSIFICATION_TYPE":"U","NORAD_CAT_ID":48219,"ELEMENT_SET_NO":999,"REV_AT_EPOCH":21154,"BSTAR":0.00023591702,"MEAN_MOTION_DOT":1.0e-6,"MEAN_MOTION_DDOT":0},{"OBJECT_NAME":"ONEWEB-0185","OBJECT_ID":"2021-031L","EPOCH":"2025-09-10T06:09:32.077728","MEAN_MOTION":13.14504102,"ECCENTRICITY":0.00021881,"INCLINATION":87.9094,"RA_OF_ASC_NODE":345.4185,"ARG_OF_PERICENTER":106.4366,"MEAN_ANOMALY":253.7005,"EPHEMERIS_TYPE":0,"CLASSIFICATION_TYPE":"U","NORAD_CAT_ID":48220,"ELEMENT_SET_NO":999,"REV_AT_EPOCH":21147,"BSTAR":0.0005582504,"MEAN_MOTION_DOT":2.2e-6,"MEAN_MOTION_DDOT":0},{"OBJECT_NAME":"ONEWEB-0187","OBJECT_ID":"2021-031M","EPOCH":"2025-09-10T05:40:50.374560","MEAN_MOTION":13.14489901,"ECCENTRICITY":0.00019199,"INCLINATION":87.9092,"RA_OF_ASC_NODE":345.4684,"ARG_OF_PERICENTER":108.3166,"MEAN_ANOMALY":251.8173,"EPHEMERIS_TYPE":0,"CLASSIFICATION_TYPE":"U","NORAD_CAT_ID":48221,"ELEMENT_SET_NO":999,"REV_AT_EPOCH":21148,"BSTAR":0.0074163564,"MEAN_MOTION_DOT":2.763e-5,"MEAN_MOTION_DDOT":0},{"OBJECT_NAME":"ONEWEB-0192","OBJECT_ID":"2021-031N","EPOCH":"2025-09-09T19:49:33.891744","MEAN_MOTION":13.14503195,"ECCENTRICITY":0.00017553,"INCLINATION":87.9086,"RA_OF_ASC_NODE":345.5431,"ARG_OF_PERICENTER":101.9767,"MEAN_ANOMALY":258.1559,"EPHEMERIS_TYPE":0,"CLASSIFICATION_TYPE":"U","NORAD_CAT_ID":48222,"ELEMENT_SET_NO":999,"REV_AT_EPOCH":21134,"BSTAR":-0.00084142689,"MEAN_MOTION_DOT":-2.99e-6,"MEAN_MOTION_DDOT":0},{"OBJECT_NAME":"ONEWEB-0219","OBJECT_ID":"2021-031P","EPOCH":"2025-09-10T06:17:32.708832","MEAN_MOTION":13.14502514,"ECCENTRICITY":0.00020149,"INCLINATION":87.9089,"RA_OF_ASC_NODE":345.4295,"ARG_OF_PERICENTER":106.4818,"MEAN_ANOMALY":253.6533,"EPHEMERIS_TYPE":0,"CLASSIFICATION_TYPE":"U","NORAD_CAT_ID":48223,"ELEMENT_SET_NO":999,"REV_AT_EPOCH":21160,"BSTAR":0.00042716503,"MEAN_MOTION_DOT":1.71e-6,"MEAN_MOTION_DDOT":0},{"OBJECT_NAME":"ONEWEB-0202","OBJECT_ID":"2021-031Q","EPOCH":"2025-09-10T05:50:08.281824","MEAN_MOTION":13.14503308,"ECCENTRICITY":0.0001444,"INCLINATION":87.9089,"RA_OF_ASC_NODE":345.4475,"ARG_OF_PERICENTER":124.0716,"MEAN_ANOMALY":236.0551,"EPHEMERIS_TYPE":0,"CLASSIFICATION_TYPE":"U","NORAD_CAT_ID":48224,"ELEMENT_SET_NO":999,"REV_AT_EPOCH":21158,"BSTAR":0.00065604598,"MEAN_MOTION_DOT":2.56e-6,"MEAN_MOTION_DDOT":0},{"OBJECT_NAME":"ONEWEB-0204","OBJECT_ID":"2021-031R","EPOCH":"2025-09-10T10:18:26.784288","MEAN_MOTION":13.14503692,"ECCENTRICITY":0.00020995,"INCLINATION":87.9081,"RA_OF_ASC_NODE":345.4002,"ARG_OF_PERICENTER":96.3733,"MEAN_ANOMALY":263.7636,"EPHEMERIS_TYPE":0,"CLASSIFICATION_TYPE":"U","NORAD_CAT_ID":48225,"ELEMENT_SET_NO":999,"REV_AT_EPOCH":21150,"BSTAR":-0.00014402548,"MEAN_MOTION_DOT":-4.1e-7,"MEAN_MOTION_DDOT":0},{"OBJECT_NAME":"ONEWEB-0205","OBJECT_ID":"2021-031S","EPOCH":"2025-09-10T00:35:00.513600","MEAN_MOTION":13.14503565,"ECCENTRICITY":0.00019271,"INCLINATION":87.9086,"RA_OF_ASC_NODE":345.4716,"ARG_OF_PERICENTER":105.5469,"MEAN_ANOMALY":254.5874,"EPHEMERIS_TYPE":0,"CLASSIFICATION_TYPE":"U","NORAD_CAT_ID":48226,"ELEMENT_SET_NO":999,"REV_AT_EPOCH":21146,"BSTAR":0.00069187841,"MEAN_MOTION_DOT":2.69e-6,"MEAN_MOTION_DDOT":0},{"OBJECT_NAME":"ONEWEB-0206","OBJECT_ID":"2021-031T","EPOCH":"2025-09-10T05:25:01.178112","MEAN_MOTION":13.14503641,"ECCENTRICITY":0.00019296,"INCLINATION":87.9095,"RA_OF_ASC_NODE":345.4139,"ARG_OF_PERICENTER":101.312,"MEAN_ANOMALY":258.8227,"EPHEMERIS_TYPE":0,"CLASSIFICATION_TYPE":"U","NORAD_CAT_ID":48227,"ELEMENT_SET_NO":999,"REV_AT_EPOCH":21144,"BSTAR":-0.00015171734,"MEAN_MOTION_DOT":-4.3e-7,"MEAN_MOTION_DDOT":0},{"OBJECT_NAME":"ONEWEB-0182","OBJECT_ID":"2021-031U","EPOCH":"2025-09-10T05:18:10.179360","MEAN_MOTION":13.14503229,"ECCENTRICITY":0.00020691,"INCLINATION":87.9086,"RA_OF_ASC_NODE":345.4584,"ARG_OF_PERICENTER":98.3734,"MEAN_ANOMALY":261.763,"EPHEMERIS_TYPE":0,"CLASSIFICATION_TYPE":"U","NORAD_CAT_ID":48228,"ELEMENT_SET_NO":999,"REV_AT_EPOCH":21165,"BSTAR":-0.00014936172,"MEAN_MOTION_DOT":-4.3e-7,"MEAN_MOTION_DDOT":0},{"OBJECT_NAME":"ONEWEB-0186","OBJECT_ID":"2021-031V","EPOCH":"2025-09-10T05:34:09.402528","MEAN_MOTION":13.14504156,"ECCENTRICITY":0.00018646,"INCLINATION":87.9096,"RA_OF_ASC_NODE":345.4188,"ARG_OF_PERICENTER":103.5079,"MEAN_ANOMALY":256.6258,"EPHEMERIS_TYPE":0,"CLASSIFICATION_TYPE":"U","NORAD_CAT_ID":48229,"ELEMENT_SET_NO":999,"REV_AT_EPOCH":21160,"BSTAR":0.0003795346,"MEAN_MOTION_DOT":1.53e-6,"MEAN_MOTION_DDOT":0},{"OBJECT_NAME":"ONEWEB-0181","OBJECT_ID":"2021-031W","EPOCH":"2025-09-09T23:33:20.888928","MEAN_MOTION":13.14502466,"ECCENTRICITY":0.00017892,"INCLINATION":87.9081,"RA_OF_ASC_NODE":345.5398,"ARG_OF_PERICENTER":106.4188,"MEAN_ANOMALY":253.7139,"EPHEMERIS_TYPE":0,"CLASSIFICATION_TYPE":"U","NORAD_CAT_ID":48230,"ELEMENT_SET_NO":999,"REV_AT_EPOCH":21142,"BSTAR":-0.00060304865,"MEAN_MOTION_DOT":-2.11e-6,"MEAN_MOTION_DDOT":0},{"OBJECT_NAME":"ONEWEB-0188","OBJECT_ID":"2021-031X","EPOCH":"2025-09-10T05:56:58.988544","MEAN_MOTION":13.1450405,"ECCENTRICITY":0.00018852,"INCLINATION":87.909,"RA_OF_ASC_NODE":345.4792,"ARG_OF_PERICENTER":100.6536,"MEAN_ANOMALY":259.4806,"EPHEMERIS_TYPE":0,"CLASSIFICATION_TYPE":"U","NORAD_CAT_ID":48231,"ELEMENT_SET_NO":999,"REV_AT_EPOCH":21136,"BSTAR":0.00069365576,"MEAN_MOTION_DOT":2.7e-6,"MEAN_MOTION_DDOT":0}]
