ONEWEB-0198             
1 48216U 21031G   25253.26547571  .00002498  00000+0  67028-2 0  9999
2 48216  87.9089 345.4518 0001640 116.5011 243.6287 13.14490760211719
ONEWEB-0189             
1 48217U 21031H   25253.43026804 -.00000115  00000+0 -34535-3 0  9994
2 48217  87.9083 345.3923 0001672 112.8652 247.2655 13.14504219211475
ONEWEB-0196             
1 48218U 21031J   25253.25584095  .00000207  00000+0  52295-3 0  9999
2 48218  87.9091 345.4420 0001795 104.8441 255.2888 13.14503518211457
ONEWEB-0183             
1 48219U 21031K   25253.23046421  .00000100  00000+0  23592-3 0  9994
2 48219  87.9084 345.4570 0002066  99.3554 260.7809 13.14503328211544
ONEWEB-0185             
1 48220U 21031L   25253.25662127  .00000220  00000+0  55825-3 0  9992
2 48220  87.9094 345.4185 0002188 106.4366 253.7005 13.14504102211478
ONEWEB-0187             
1 48221U 21031M   25253.23669415  .00002763  00000+0  74164-2 0  9998
2 48221  87.9092 345.4684 0001919 108.3166 251.8173 13.14489901211486
ONEWEB-0192             
1 48222U 21031N   25252.82608671 -.00000299  00000+0 -84143-3 0  9993
2 48222  87.9086 345.5431 0001755 101.9767 258.1559 13.14503195211340
ONEWEB-0219             
1 48223U 21031P   25253.26218413  .00000171  00000+0  42717-3 0  9992
2 48223  87.9089 345.4295 0002014 106.4818 253.6533 13.14502514211602
ONEWEB-0202             
1 48224U 21031Q   25253.24315141  .00000256  00000+0  65605-3 0  9992
2 48224  87.9089 345.4475 0001444 124.0716 236.0551 13.14503308211586
ONEWEB-0204             
1 48225U 21031R   25253.42947667 -.00000041  00000+0 -14403-3 0  9991
2 48225  87.9081 345.4002 0002099  96.3733 263.7636 13.14503692211501
ONEWEB-0205             
1 48226U 21031S   25253.02431150  .00000269  00000+0  69188-3 0  9993
2 48226  87.9086 345.4716 0001927 105.5469 254.5874 13.14503565211463
ONEWEB-0206             
1 48227U 21031T   25253.22570808 -.00000043  00000+0 -15172-3 0  9996
2 48227  87.9095 345.4139 0001929 101.3120 258.8227 13.14503641211445
ONEWEB-0182             
1 48228U 21031U   25253.22095115 -.00000043  00000+0 -14936-3 0  9997
2 48228  87.9086 345.4584 0002069  98.3734 261.7630 13.14503229211658
ONEWEB-0186             
1 48229U 21031V   25253.23205327  .00000153  00000+0  37953-3 0  9991
2 48229  87.9096 345.4188 0001864 103.5079 256.6258 13.14504156211607
ONEWEB-0181             
1 48230U 21031W   25252.98149177 -.00000211  00000+0 -60305-3 0  9998
2 48230  87.9081 345.5398 0001789 106.4188 253.7139 13.14502466211424
ONEWEB-0188             
1 48231U 21031X   25253.24790496  .00000270  00000+0  69366-3 0  9994
2 48231  87.9090 345.4792 0001885 100.6536 259.4806 13.14504050211360
